{"type": "FeatureCollection", "features": [ {"type": "Feature", "properties": {"norad_id": 37867, "name": "COSMOS 2476 (744)", "group": "gnss", "lat": -50.81602824049954, "lon": 44.255333959233596, "alt_km": 19109.869966932663, "timestamp": "2025-12-23T20:42:37.317034+00:00", "meta": {"OBJECT_NAME": "COSMOS 2476 (744)", "OBJECT_ID": "2011-064A", "EPOCH": "2025-12-23T12:51:54.046080", "MEAN_MOTION": 2.13103692, "ECCENTRICITY": 0.002455, "INCLINATION": 65.1675, "RA_OF_ASC_NODE": 78.8064, "ARG_OF_PERICENTER": 235.5255, "MEAN_ANOMALY": 174.828, "EPHEMERIS_TYPE": 0, "CLASSIFICATION_TYPE": "U", "NORAD_CAT_ID": 37867, "ELEMENT_SET_NO": 999, "REV_AT_EPOCH": 11002, "BSTAR": 0, "MEAN_MOTION_DOT": 1e-08, "MEAN_MOTION_DDOT": 0}, "tle": {"line1": "1 37867U 11064A   25357.53604220  .00000001  00000+0  00000+0 0  9996", "line2": "2 37867  65.1675  78.8064 0024550 235.5255 174.8280  2.13103692110020"}}, "geometry": {"type": "Point", "coordinates": [44.255333959233596, -50.81602824049954]}}, {"type": "Feature", "properties": {"norad_id": 37868, "name": "COSMOS 2477 (745)", "group": "gnss", "lat": 50.486021186841, "lon": -135.19546747080554, "alt_km": 19145.995426010828, "timestamp": "2025-12-23T20:42:37.317047+00:00", "meta": {"OBJECT_NAME": "COSMOS 2477 (745)", "OBJECT_ID": "2011-064B", "EPOCH": "2025-12-23T05:19:57.056160", "MEAN_MOTION": 2.13103036, "ECCENTRICITY": 0.00215459, "INCLINATION": 65.1742, "RA_OF_ASC_NODE": 78.8944, "ARG_OF_PERICENTER": 235.4149, "MEAN_ANOMALY": 115.0574, "EPHEMERIS_TYPE": 0, "CLASSIFICATION_TYPE": "U", "NORAD_CAT_ID": 37868, "ELEMENT_SET_NO": 999, "REV_AT_EPOCH": 11000, "BSTAR": 0, "MEAN_MOTION_DOT": 0, "MEAN_MOTION_DDOT": 0}, "tle": {"line1": "1 37868U 11064B   25357.22218815  .00000000  00000+0  00000+0 0  9993", "line2": "2 37868  65.1742  78.8944 0021545 235.4149 115.0574  2.13103036110008"}}, "geometry": {"type": "Point", "coordinates": [-135.19546747080554, 50.486021186841]}}, {"type": "Feature", "properties": {"norad_id": 37869, "name": "COSMOS 2475 (743)", "group": "gnss", "lat": 62.55609881670701, "lon": 141.73760739701086, "alt_km": 19190.44407727496, "timestamp": "2025-12-23T20:42:37.317067+00:00", "meta": {"OBJECT_NAME": "COSMOS 2475 (743)", "OBJECT_ID": "2011-064C", "EPOCH": "2025-12-23T06:48:57.377088", "MEAN_MOTION": 2.13101654, "ECCENTRICITY": 0.00266814, "INCLINATION": 65.1811, "RA_OF_ASC_NODE": 78.9126, "ARG_OF_PERICENTER": 249.1292, "MEAN_ANOMALY": 104.6561, "EPHEMERIS_TYPE": 0, "CLASSIFICATION_TYPE": "U", "NORAD_CAT_ID": 37869, "ELEMENT_SET_NO": 999, "REV_AT_EPOCH": 11001, "BSTAR": 0, "MEAN_MOTION_DOT": 1e-08, "MEAN_MOTION_DDOT": 0}, "tle": {"line1": "1 37869U 11064C   25357.28399742  .00000001  00000+0  00000+0 0  9990", "line2": "2 37869  65.1811  78.9126 0026681 249.1292 104.6561  2.13101654110011"}}, "geometry": {"type": "Point", "coordinates": [141.73760739701086, 62.55609881670701]}}, {"type": "Feature", "properties": {"norad_id": 37948, "name": "BEIDOU-2 IGSO-5 (C10)", "group": "gnss", "lat": -30.572991054009705, "lon": 125.80982063133203, "alt_km": 35323.07310532115, "timestamp": "2025-12-23T20:42:37.317080+00:00", "meta": {"OBJECT_NAME": "BEIDOU-2 IGSO-5 (C10)", "OBJECT_ID": "2011-073A", "EPOCH": "2025-12-22T17:56:38.660352", "MEAN_MOTION": 1.00289046, "ECCENTRICITY": 0.01097824, "INCLINATION": 48.0017, "RA_OF_ASC_NODE": 273.7363, "ARG_OF_PERICENTER": 222.2409, "MEAN_ANOMALY": 318.2771, "EPHEMERIS_TYPE": 0, "CLASSIFICATION_TYPE": "U", "NORAD_CAT_ID": 37948, "ELEMENT_SET_NO": 999, "REV_AT_EPOCH": 5136, "BSTAR": 0, "MEAN_MOTION_DOT": -1.4e-06, "MEAN_MOTION_DDOT": 0}, "tle": {"line1": "1 37948U 11073A   25356.74766968 -.00000140  00000+0  00000+0 0  9991", "line2": "2 37948  48.0017 273.7363 0109782 222.2409 318.2771  1.00289046 51366"}}, "geometry": {"type": "Point", "coordinates": [125.80982063133203, -30.572991054009705]}}, {"type": "Feature", "properties": {"norad_id": 37951, "name": "LUCH 5A (SDCM/PRN 140)", "group": "gnss", "lat": 5.978610463587556, "lon": -149.40927928217602, "alt_km": 35774.253658763344, "timestamp": "2025-12-23T20:42:37.317093+00:00", "meta": {"OBJECT_NAME": "LUCH 5A (SDCM/PRN 140)", "OBJECT_ID": "2011-074B", "EPOCH": "2025-12-23T07:10:58.869408", "MEAN_MOTION": 1.0026906, "ECCENTRICITY": 0.00051752, "INCLINATION": 8.3049, "RA_OF_ASC_NODE": 76.4293, "ARG_OF_PERICENTER": 191.1681, "MEAN_ANOMALY": 99.2782, "EPHEMERIS_TYPE": 0, "CLASSIFICATION_TYPE": "U", "NORAD_CAT_ID": 37951, "ELEMENT_SET_NO": 999, "REV_AT_EPOCH": 5128, "BSTAR": 0, "MEAN_MOTION_DOT": -3.2e-07, "MEAN_MOTION_DDOT": 0}, "tle": {"line1": "1 37951U 11074B   25357.29929247 -.00000032  00000+0  00000+0 0  9998", "line2": "2 37951   8.3049  76.4293 0005175 191.1681  99.2782  1.00269060 51284"}}, "geometry": {"type": "Point", "coordinates": [-149.40927928217602, 5.978610463587556]}}, {"type": "Feature", "properties": {"norad_id": 38091, "name": "BEIDOU-2 G5 (C05)", "group": "gnss", "lat": 1.6559521309917213, "lon": 102.05109155720301, "alt_km": 35838.6424696784, "timestamp": "2025-12-23T20:42:37.317105+00:00", "meta": {"OBJECT_NAME": "BEIDOU-2 G5 (C05)", "OBJECT_ID": "2012-008A", "EPOCH": "2025-12-23T03:08:21.323904", "MEAN_MOTION": 1.00269239, "ECCENTRICITY": 0.0013154, "INCLINATION": 3.1332, "RA_OF_ASC_NODE": 70.6743, "ARG_OF_PERICENTER": 232.0278, "MEAN_ANOMALY": 255.0578, "EPHEMERIS_TYPE": 0, "CLASSIFICATION_TYPE": "U", "NORAD_CAT_ID": 38091, "ELEMENT_SET_NO": 999, "REV_AT_EPOCH": 5060, "BSTAR": 0, "MEAN_MOTION_DOT": 7.7e-07, "MEAN_MOTION_DDOT": 0}, "tle": {"line1": "1 38091U 12008A   25357.13080236  .00000077  00000+0  00000+0 0  9999", "line2": "2 38091   3.1332  70.6743 0013154 232.0278 255.0578  1.00269239 50605"}}, "geometry": {"type": "Point", "coordinates": [102.05109155720301, 1.6559521309917213]}}, {"type": "Feature", "properties": {"norad_id": 38250, "name": "BEIDOU-2 M3 (C11)", "group": "gnss", "lat": 5.352128762623112, "lon": 127.13038246687387, "alt_km": 21541.51209966109, "timestamp": "2025-12-23T20:42:37.317117+00:00", "meta": {"OBJECT_NAME": "BEIDOU-2 M3 (C11)", "OBJECT_ID": "2012-018A", "EPOCH": "2025-12-23T01:35:36.846816", "MEAN_MOTION": 1.86230199, "ECCENTRICITY": 0.00241034, "INCLINATION": 55.9114, "RA_OF_ASC_NODE": 310.8107, "ARG_OF_PERICENTER": 275.3309, "MEAN_ANOMALY": 84.3935, "EPHEMERIS_TYPE": 0, "CLASSIFICATION_TYPE": "U", "NORAD_CAT_ID": 38250, "ELEMENT_SET_NO": 999, "REV_AT_EPOCH": 9266, "BSTAR": 0, "MEAN_MOTION_DOT": -5.5e-07, "MEAN_MOTION_DDOT": 0}, "tle": {"line1": "1 38250U 12018A   25357.06639869 -.00000055  00000+0  00000+0 0  9998", "line2": "2 38250  55.9114 310.8107 0024103 275.3309  84.3935  1.86230199 92668"}}, "geometry": {"type": "Point", "coordinates": [127.13038246687387, 5.352128762623112]}}, {"type": "Feature", "properties": {"norad_id": 38251, "name": "BEIDOU-2 M4 (C12)", "group": "gnss", "lat": -31.596445349439605, "lon": 154.6807426363351, "alt_km": 21510.845778359704, "timestamp": "2025-12-23T20:42:37.317128+00:00", "meta": {"OBJECT_NAME": "BEIDOU-2 M4 (C12)", "OBJECT_ID": "2012-018B", "EPOCH": "2025-12-21T22:11:20.549760", "MEAN_MOTION": 1.86229896, "ECCENTRICITY": 0.00152556, "INCLINATION": 55.8135, "RA_OF_ASC_NODE": 310.0771, "ARG_OF_PERICENTER": 279.1681, "MEAN_ANOMALY": 80.6551, "EPHEMERIS_TYPE": 0, "CLASSIFICATION_TYPE": "U", "NORAD_CAT_ID": 38251, "ELEMENT_SET_NO": 999, "REV_AT_EPOCH": 9264, "BSTAR": 0, "MEAN_MOTION_DOT": -6e-07, "MEAN_MOTION_DDOT": 0}, "tle": {"line1": "1 38251U 12018B   25355.92454340 -.00000060  00000+0  00000+0 0  9997", "line2": "2 38251  55.8135 310.0771 0015255 279.1681  80.6551  1.86229896 92646"}}, "geometry": {"type": "Point", "coordinates": [154.6807426363351, -31.596445349439605]}}, {"type": "Feature", "properties": {"norad_id": 38652, "name": "SES-5 (EGNOS/PRN 136)", "group": "gnss", "lat": 0.06817317669947207, "lon": 48.29910629709439, "alt_km": 35791.476414102675, "timestamp": "2025-12-23T20:42:37.317141+00:00", "meta": {"OBJECT_NAME": "SES-5 (EGNOS/PRN 136)", "OBJECT_ID": "2012-036A", "EPOCH": "2025-12-23T01:10:21.285408", "MEAN_MOTION": 1.00272166, "ECCENTRICITY": 0.00018817, "INCLINATION": 0.0604, "RA_OF_ASC_NODE": 303.4914, "ARG_OF_PERICENTER": 330.5025, "MEAN_ANOMALY": 200.4256, "EPHEMERIS_TYPE": 0, "CLASSIFICATION_TYPE": "U", "NORAD_CAT_ID": 38652, "ELEMENT_SET_NO": 999, "REV_AT_EPOCH": 4269, "BSTAR": 0, "MEAN_MOTION_DOT": 5.5e-07, "MEAN_MOTION_DDOT": 0}, "tle": {"line1": "1 38652U 12036A   25357.04885747  .00000055  00000+0  00000+0 0  9999", "line2": "2 38652   0.0604 303.4914 0001881 330.5025 200.4256  1.00272166 42691"}}, "geometry": {"type": "Point", "coordinates": [48.29910629709439, 0.06817317669947207]}}, {"type": "Feature", "properties": {"norad_id": 38775, "name": "BEIDOU-2 M6 (C14)", "group": "gnss", "lat": 42.05057130194993, "lon": 105.52752283845479, "alt_km": 21512.19698489886, "timestamp": "2025-12-23T20:42:37.317156+00:00", "meta": {"OBJECT_NAME": "BEIDOU-2 M6 (C14)", "OBJECT_ID": "2012-050B", "EPOCH": "2025-12-23T05:54:39.234816", "MEAN_MOTION": 1.86230862, "ECCENTRICITY": 0.00114449, "INCLINATION": 56.3871, "RA_OF_ASC_NODE": 68.7189, "ARG_OF_PERICENTER": 343.1863, "MEAN_ANOMALY": 16.829, "EPHEMERIS_TYPE": 0, "CLASSIFICATION_TYPE": "U", "NORAD_CAT_ID": 38775, "ELEMENT_SET_NO": 999, "REV_AT_EPOCH": 9003, "BSTAR": 0, "MEAN_MOTION_DOT": -2.5e-07, "MEAN_MOTION_DDOT": 0}, "tle": {"line1": "1 38775U 12050B   25357.24628744 -.00000025  00000+0  00000+0 0  9993", "line2": "2 38775  56.3871  68.7189 0011444 343.1863  16.8290  1.86230862 90037"}}, "geometry": {"type": "Point", "coordinates": [105.52752283845479, 42.05057130194993]}}]}